LIZZIESAT-2 (LS-2)      
1 62383U 24247G   26068.49140277  .00009388  00000+0  34517-3 0  9997
2 62383  44.9909 117.0823 0004092 327.5136  32.5495 15.28222796 67716
STARLINK-34353          
1 64278U 25120Y   26068.43282751  .00025439  00000+0  86822-3 0  9992
2 64278  53.1580 118.1088 0001239  75.5303 284.5835 15.30194970 43872
